OBJECT_NAME,OBJECT_ID,EPOCH,MEAN_MOTION,ECCENTRICITY,INCLINATION,RA_OF_ASC_NODE,ARG_OF_PERICENTER,MEAN_ANOMALY,EPHEMERIS_TYPE,CLASSIFICATION_TYPE,NORAD_CAT_ID,ELEMENT_SET_NO,REV_AT_EPOCH,BSTAR,MEAN_MOTION_DOT,MEAN_MOTION_DDOT
STARLINK-5828,2023-088Y,2026-05-18T03:46:25.470336,15.27597649,.0000708,43.0013,63.8893,239.6754,120.4028,0,U,57070,999,16112,.66313E-4,.1564E-4,0
STARLINK-5834,2023-088Z,2026-05-17T23:26:10.025952,15.27576998,.0001481,43.0053,65.1117,279.3135,80.7549,0,U,57071,999,16092,.90394E-5,-.14E-6,0
STARLINK-5843,2023-088AA,2026-05-18T03:57:32.301216,15.27574269,.0000883,43.0022,63.9473,263.0665,97.0086,0,U,57072,999,16014,-.56565E-5,-.418E-5,0
STARLINK-5838,2023-088AB,2026-05-18T03:51:59.230944,15.27576278,.0000863,43.0037,63.9133,264.2846,95.7907,0,U,57073,999,16014,-.37281E-5,-.365E-5,0
STARLINK-5773,2023-088AC,2026-05-18T05:06:12.392352,15.27572392,.0000681,43.0026,81.5533,258.4263,101.6512,0,U,57074,999,16092,-.4626E-5,-.389E-5,0
STARLINK-5542,2023-088AD,2026-05-18T04:30:37.863072,15.27577724,.0001547,43.0062,63.2572,290.7163,69.3523,0,U,57075,999,16113,.19575E-4,.276E-5,0
STARLINK-6155,2023-088AE,2026-05-18T02:28:55.795584,15.27571232,.0001311,43.0056,64.3407,257.2309,102.8396,0,U,57076,999,16094,.20412E-4,.299E-5,0
STARLINK-6194,2023-088AF,2026-05-18T04:17:38.394240,15.27219663,.0000742,43.0018,64.0490,214.3523,145.7280,0,U,57077,999,16128,.19709E-2,.53773E-3,0
STARLINK-6245,2023-088AH,2026-05-18T03:11:17.007072,15.27573975,.0001287,43.0037,63.7026,259.4344,100.6363,0,U,57079,999,16112,-.77786E-5,-.476E-5,0
STARLINK-6243,2023-088AJ,2026-05-18T04:12:20.361024,15.27573453,.0001095,43.0060,64.0185,268.7841,91.2885,0,U,57080,999,16095,-.17393E-4,-.741E-5,0
STARLINK-6184,2023-088AK,2026-05-18T01:48:13.980384,15.27576420,.0001251,43.0044,64.1247,265.9078,94.1631,0,U,57081,999,16111,-.23951E-4,-.921E-5,0
STARLINK-6248,2023-088AL,2026-05-18T01:27:52.037280,15.27577912,.0001974,43.0062,64.0240,274.6727,85.3899,0,U,57082,999,16111,.11855E-4,.64E-6,0
STARLINK-6253,2023-088AM,2026-05-18T03:42:45.650592,15.27568126,.0000587,43.0044,63.8569,244.1847,115.8945,0,U,57083,999,16112,-.36278E-4,-.126E-4,0
STARLINK-6240,2023-088AN,2026-05-18T04:00:01.998720,15.27558294,.0001411,43.0021,63.5649,268.8971,256.3594,0,U,57084,999,589,.1534E-2,.42165E-3,0
STARLINK-6232,2023-088AP,2026-05-18T04:28:49.761120,15.27486491,.0001231,43.0067,63.2472,283.9558,76.1157,0,U,57085,999,16113,.7142E-3,.19387E-3,0
STARLINK-6247,2023-088AQ,2026-05-18T05:02:04.498656,15.27580739,.0000973,43.0039,63.4151,258.2754,101.7988,0,U,57086,999,16113,.20894E-4,.313E-5,0
STARLINK-6251,2023-088AR,2026-05-17T22:17:42.385920,15.27575312,.00014723,43.0083,64.7523,271.7921,88.2762,0,U,57087,999,16109,.524777E-6,-.248E-5,0
STARLINK-6257,2023-088AS,2026-05-18T03:33:26.100864,15.27706354,.000128,43.0044,63.8115,232.1578,127.9158,0,U,57088,999,16112,-.11074E-2,-.30726E-3,0
STARLINK-6259,2023-088AT,2026-05-18T03:26:04.941600,15.27583831,.0001486,43.0021,63.7710,273.6022,86.4660,0,U,57089,999,16112,.10156E-3,.2534E-4,0
STARLINK-6254,2023-088AU,2026-05-17T19:14:56.995584,15.27584637,.00014235,43.0061,65.5111,260.4787,99.5904,0,U,57090,999,16107,.75549612E-4,.1818E-4,0
STARLINK-6262,2023-088AV,2026-05-18T04:49:07.881024,15.27571268,.0001362,43.0052,63.3448,267.9669,92.1027,0,U,57091,999,16113,-.72551E-4,-.2257E-4,0
STARLINK-6225,2023-088AW,2026-05-18T03:09:24.585120,15.27603320,.0001733,43.0034,63.6874,265.4553,94.6100,0,U,57092,999,16112,.13218E-3,.3379E-4,0
STARLINK-6229,2023-088AX,2026-05-18T03:30:04.588416,15.26740837,.0000773,43.0044,63.7903,269.8905,90.1857,0,U,57093,999,16112,.84215E-4,.2E-4,0
STARLINK-6235,2023-088AY,2026-05-18T03:37:10.638912,15.27565755,.0001275,43.0028,63.8231,257.0623,103.0086,0,U,57094,999,16112,-.65021E-4,-.205E-4,0
STARLINK-6132,2023-090A,2026-05-18T00:17:46.533696,15.27566486,.0001218,43.0008,250.1232,271.1479,88.9233,0,U,57101,999,16093,.14997E-5,-.221E-5,0
STARLINK-6111,2023-090B,2026-05-18T00:10:44.346144,15.26737720,.0001326,43.0033,250.0853,268.8028,91.2672,0,U,57102,999,16093,.1302E-4,.89E-6,0
STARLINK-6130,2023-090D,2026-05-17T16:29:35.087424,15.26735020,.000126,43.0025,251.9796,269.1510,90.9197,0,U,57104,999,16087,-.9447522E-5,-.513E-5,0
STARLINK-6097,2023-090E,2026-05-18T00:32:33.103104,15.27574884,.0000391,43.0017,250.2006,262.2429,97.8379,0,U,57105,999,16093,.10801E-4,.35E-6,0
STARLINK-6118,2023-090F,2026-05-18T00:06:05.215392,15.26738422,.0001396,43.0011,250.0570,260.0827,99.9866,0,U,57106,999,16093,.36608E-4,.722E-5,0
STARLINK-6131,2023-090G,2026-05-17T15:49:57.560736,15.27572106,.00015954,43.0023,251.7751,269.2353,90.8316,0,U,57107,999,16088,-.19899209E-4,-.81E-5,0
