STARLINK-5828           
1 57070U 23088Y   26138.15723924  .00001564  00000+0  66313-4 0  9991
2 57070  43.0013  63.8893 0000708 239.6754 120.4028 15.27597649161123
STARLINK-5834           
1 57071U 23088Z   26137.97650493 -.00000014  00000+0  90394-5 0  9998
2 57071  43.0053  65.1117 0001481 279.3135  80.7549 15.27576998160922
STARLINK-5843           
1 57072U 23088AA  26138.16495719 -.00000418  00000+0 -56565-5 0  9990
2 57072  43.0022  63.9473 0000883 263.0665  97.0086 15.27574269160143
STARLINK-5838           
1 57073U 23088AB  26138.16110221 -.00000365  00000+0 -37281-5 0  9998
2 57073  43.0037  63.9133 0000863 264.2846  95.7907 15.27576278160144
STARLINK-5773           
1 57074U 23088AC  26138.21264343 -.00000389  00000+0 -46260-5 0  9993
2 57074  43.0026  81.5533 0000681 258.4263 101.6512 15.27572392160927
STARLINK-5542           
1 57075U 23088AD  26138.18793823  .00000276  00000+0  19575-4 0  9991
2 57075  43.0062  63.2572 0001547 290.7163  69.3523 15.27577724161138
STARLINK-6155           
1 57076U 23088AE  26138.10342356  .00000299  00000+0  20412-4 0  9992
2 57076  43.0056  64.3407 0001311 257.2309 102.8396 15.27571232160947
STARLINK-6194           
1 57077U 23088AF  26138.17891660  .00053773  00000+0  19709-2 0  9997
2 57077  43.0018  64.0490 0000742 214.3523 145.7280 15.27219663161287
STARLINK-6245           
1 57079U 23088AH  26138.13283573 -.00000476  00000+0 -77786-5 0  9999
2 57079  43.0037  63.7026 0001287 259.4344 100.6363 15.27573975161121
STARLINK-6243           
1 57080U 23088AJ  26138.17523566 -.00000741  00000+0 -17393-4 0  9996
2 57080  43.0060  64.0185 0001095 268.7841  91.2885 15.27573453160956
STARLINK-6184           
1 57081U 23088AK  26138.07516181 -.00000921  00000+0 -23951-4 0  9998
2 57081  43.0044  64.1247 0001251 265.9078  94.1631 15.27576420161111
STARLINK-6248           
1 57082U 23088AL  26138.06101895  .00000064  00000+0  11855-4 0  9996
2 57082  43.0062  64.0240 0001974 274.6727  85.3899 15.27577912161119
STARLINK-6253           
1 57083U 23088AM  26138.15469503 -.00001260  00000+0 -36278-4 0  9997
2 57083  43.0044  63.8569 0000587 244.1847 115.8945 15.27568126161124
STARLINK-6240           
1 57084U 23088AN  26138.16668980  .00042165  00000+0  15340-2 0  9991
2 57084  43.0021  63.5649 0001411 268.8971 256.3594 15.27558294  5891
STARLINK-6232           
1 57085U 23088AP  26138.18668705  .00019387  00000+0  71420-3 0  9991
2 57085  43.0067  63.2472 0001231 283.9558  76.1157 15.27486491161134
STARLINK-6247           
1 57086U 23088AQ  26138.20977429  .00000313  00000+0  20894-4 0  9990
2 57086  43.0039  63.4151 0000973 258.2754 101.7988 15.27580739161132
STARLINK-6251           
1 57087U 23088AR  26137.92896280 -.00000248  00000+0  52478-6 0  9997
2 57087  43.0083  64.7523 0001472 271.7921  88.2762 15.27575312161095
STARLINK-6257           
1 57088U 23088AS  26138.14821876 -.00030726  00000+0 -11074-2 0  9990
2 57088  43.0044  63.8115 0001280 232.1578 127.9158 15.27706354161122
STARLINK-6259           
1 57089U 23088AT  26138.14311275  .00002534  00000+0  10156-3 0  9993
2 57089  43.0021  63.7710 0001486 273.6022  86.4660 15.27583831161120
STARLINK-6254           
1 57090U 23088AU  26137.80204856  .00001818  00000+0  75550-4 0  9997
2 57090  43.0061  65.5111 0001423 260.4787  99.5904 15.27584637161079
STARLINK-6262           
1 57091U 23088AV  26138.20078566 -.00002257  00000+0 -72551-4 0  9998
2 57091  43.0052  63.3448 0001362 267.9669  92.1027 15.27571268161130
STARLINK-6225           
1 57092U 23088AW  26138.13153455  .00003379  00000+0  13218-3 0  9990
2 57092  43.0034  63.6874 0001733 265.4553  94.6100 15.27603320161127
STARLINK-6229           
1 57093U 23088AX  26138.14588644  .00002000  00000+0  84215-4 0  9990
2 57093  43.0044  63.7903 0000773 269.8905  90.1857 15.26740837161129
STARLINK-6235           
1 57094U 23088AY  26138.15081758 -.00002050  00000+0 -65021-4 0  9997
2 57094  43.0028  63.8231 0001275 257.0623 103.0086 15.27565755161124
STARLINK-6132           
1 57101U 23090A   26138.01234414 -.00000221  00000+0  14997-5 0  9997
2 57101  43.0008 250.1232 0001218 271.1479  88.9233 15.27566486160931
STARLINK-6111           
1 57102U 23090B   26138.00745771  .00000089  00000+0  13020-4 0  9996
2 57102  43.0033 250.0853 0001326 268.8028  91.2672 15.26737720160935
STARLINK-6130           
1 57104U 23090D   26137.68721166 -.00000513  00000+0 -94475-5 0  9991
2 57104  43.0025 251.9796 0001260 269.1510  90.9197 15.26735020160873
STARLINK-6097           
1 57105U 23090E   26138.02260536  .00000035  00000+0  10801-4 0  9997
2 57105  43.0017 250.2006 0000391 262.2429  97.8379 15.27574884160933
STARLINK-6118           
1 57106U 23090F   26138.00422703  .00000722  00000+0  36608-4 0  9998
2 57106  43.0011 250.0570 0001396 260.0827  99.9866 15.26738422160939
STARLINK-6131           
1 57107U 23090G   26137.65969399 -.00000810  00000+0 -19899-4 0  9999
2 57107  43.0023 251.7751 0001595 269.2353  90.8316 15.27572106160888
